ONEWEB-0504             
1 54122U 22138K   26139.16624978 -.00000069  00000+0 -20400-3 0  9999
2 54122  87.9158 310.7502 0001892  85.3815 274.7534 13.19725088173009
ONEWEB-0505             
1 54123U 22138L   26139.01146023 -.00000044  00000+0 -14314-3 0  9994
2 54123  87.9159 310.7820 0001813  77.7061 282.4274 13.19724449172966
ONEWEB-0506             
1 54124U 22138M   26139.21364244  .00000030  00000+0  43354-4 0  9994
2 54124  87.9159 310.7384 0001780  82.9770 277.1566 13.19725251172989
ONEWEB-0507             
1 54125U 22138N   26139.23417258 -.00000040  00000+0 -13276-3 0  9993
2 54125  87.9147 310.7493 0001697  85.3910 274.7416 13.19725088173030
ONEWEB-0508             
1 54126U 22138P   26139.23101121 -.00000085  00000+0 -24499-3 0  9991
2 54126  87.9148 310.7494 0001530  79.5389 280.5916 13.19726342173016
ONEWEB-0509             
1 54127U 22138Q   26139.20574775  .00000063  00000+0  12414-3 0  9996
2 54127  87.9156 310.7408 0001767  88.8945 271.2390 13.19726213172989
ONEWEB-0510             
1 54128U 22138R   26139.11717746  .00002180  00000+0  53283-2 0  9994
2 54128  87.9169 280.2325 0002141 109.0236 251.1130 13.20759271175444
ONEWEB-0511             
1 54129U 22138S   26139.20258000  .00000012  00000+0 -29810-5 0  9993
2 54129  87.9155 310.7452 0002063  87.7165 272.4204 13.19724659173015
ONEWEB-0512             
1 54130U 22138T   26139.19467878 -.00000008  00000+0 -51905-4 0  9993
2 54130  87.9148 310.7538 0001890  81.6740 278.4607 13.19726729172981
ONEWEB-0513             
1 54131U 22138U   26139.21220194  .00000065  00000+0  12781-3 0  9994
2 54131  87.9154 310.6980 0002362  70.2403 289.8984 13.20266965172891
ONEWEB-0514             
1 54132U 22138V   26139.21048048  .00000020  00000+0  17014-4 0  9997
2 54132  87.9156 310.7415 0001882  95.5483 264.5865 13.19725550173002
ONEWEB-0515             
1 54133U 22138W   26138.64915265 -.00002429  00000+0 -60073-2 0  9996
2 54133  87.9176 280.3192 0001699 125.6051 234.5241 13.20786083175402
ONEWEB-0516             
1 54134U 22138X   26139.18520882  .00000075  00000+0  15565-3 0  9994
2 54134  87.9148 310.7560 0001641  90.1006 270.0315 13.19726476173001
ONEWEB-0517             
1 54135U 22138Y   26139.16467150 -.00000066  00000+0 -19615-3 0  9993
2 54135  87.9154 310.7508 0002103  92.2663 267.8711 13.19725636173008
ONEWEB-0518             
1 54136U 22138Z   26139.18362719  .00000019  00000+0  16002-4 0  9995
2 54136  87.9148 310.7579 0001651  88.7581 271.3741 13.19725133173001
ONEWEB-0519             
1 54137U 22138AA  26138.75398915  .00000034  00000+0  51839-4 0  9999
2 54137  87.9160 310.8317 0002020  91.0830 269.0534 13.19726484172959
