[{"OBJECT_NAME":"ONEWEB-0504","OBJECT_ID":"2022-138K","EPOCH":"2026-05-19T03:59:23.980992","MEAN_MOTION":13.19725088,"ECCENTRICITY":0.0001892,"INCLINATION":87.9158,"RA_OF_ASC_NODE":310.7502,"ARG_OF_PERICENTER":85.3815,"MEAN_ANOMALY":274.7534,"EPHEMERIS_TYPE":0,"CLASSIFICATION_TYPE":"U","NORAD_CAT_ID":54122,"ELEMENT_SET_NO":999,"REV_AT_EPOCH":17300,"BSTAR":-0.000204,"MEAN_MOTION_DOT":-6.9e-07,"MEAN_MOTION_DDOT":0.0},{"OBJECT_NAME":"ONEWEB-0505","OBJECT_ID":"2022-138L","EPOCH":"2026-05-19T00:16:30.163872","MEAN_MOTION":13.19724449,"ECCENTRICITY":0.0001813,"INCLINATION":87.9159,"RA_OF_ASC_NODE":310.782,"ARG_OF_PERICENTER":77.7061,"MEAN_ANOMALY":282.4274,"EPHEMERIS_TYPE":0,"CLASSIFICATION_TYPE":"U","NORAD_CAT_ID":54123,"ELEMENT_SET_NO":999,"REV_AT_EPOCH":17296,"BSTAR":-0.00014314,"MEAN_MOTION_DOT":-4.4e-07,"MEAN_MOTION_DDOT":0.0},{"OBJECT_NAME":"ONEWEB-0506","OBJECT_ID":"2022-138M","EPOCH":"2026-05-19T05:07:38.706816","MEAN_MOTION":13.19725251,"ECCENTRICITY":0.000178,"INCLINATION":87.9159,"RA_OF_ASC_NODE":310.7384,"ARG_OF_PERICENTER":82.977,"MEAN_ANOMALY":277.1566,"EPHEMERIS_TYPE":0,"CLASSIFICATION_TYPE":"U","NORAD_CAT_ID":54124,"ELEMENT_SET_NO":999,"REV_AT_EPOCH":17298,"BSTAR":4.3354e-05,"MEAN_MOTION_DOT":3e-07,"MEAN_MOTION_DDOT":0.0},{"OBJECT_NAME":"ONEWEB-0507","OBJECT_ID":"2022-138N","EPOCH":"2026-05-19T05:37:12.510912","MEAN_MOTION":13.19725088,"ECCENTRICITY":0.0001697,"INCLINATION":87.9147,"RA_OF_ASC_NODE":310.7493,"ARG_OF_PERICENTER":85.391,"MEAN_ANOMALY":274.7416,"EPHEMERIS_TYPE":0,"CLASSIFICATION_TYPE":"U","NORAD_CAT_ID":54125,"ELEMENT_SET_NO":999,"REV_AT_EPOCH":17303,"BSTAR":-0.00013276,"MEAN_MOTION_DOT":-4e-07,"MEAN_MOTION_DDOT":0.0},{"OBJECT_NAME":"ONEWEB-0508","OBJECT_ID":"2022-138P","EPOCH":"2026-05-19T05:32:39.368544","MEAN_MOTION":13.19726342,"ECCENTRICITY":0.000153,"INCLINATION":87.9148,"RA_OF_ASC_NODE":310.7494,"ARG_OF_PERICENTER":79.5389,"MEAN_ANOMALY":280.5916,"EPHEMERIS_TYPE":0,"CLASSIFICATION_TYPE":"U","NORAD_CAT_ID":54126,"ELEMENT_SET_NO":999,"REV_AT_EPOCH":17301,"BSTAR":-0.00024499,"MEAN_MOTION_DOT":-8.5e-07,"MEAN_MOTION_DDOT":0.0},{"OBJECT_NAME":"ONEWEB-0509","OBJECT_ID":"2022-138Q","EPOCH":"2026-05-19T04:56:16.605600","MEAN_MOTION":13.19726213,"ECCENTRICITY":0.0001767,"INCLINATION":87.9156,"RA_OF_ASC_NODE":310.7408,"ARG_OF_PERICENTER":88.8945,"MEAN_ANOMALY":271.239,"EPHEMERIS_TYPE":0,"CLASSIFICATION_TYPE":"U","NORAD_CAT_ID":54127,"ELEMENT_SET_NO":999,"REV_AT_EPOCH":17298,"BSTAR":0.00012414000000000001,"MEAN_MOTION_DOT":6.3e-07,"MEAN_MOTION_DDOT":0.0},{"OBJECT_NAME":"ONEWEB-0510","OBJECT_ID":"2022-138R","EPOCH":"2026-05-19T02:48:44.132544","MEAN_MOTION":13.20759271,"ECCENTRICITY":0.0002141,"INCLINATION":87.9169,"RA_OF_ASC_NODE":280.2325,"ARG_OF_PERICENTER":109.0236,"MEAN_ANOMALY":251.113,"EPHEMERIS_TYPE":0,"CLASSIFICATION_TYPE":"U","NORAD_CAT_ID":54128,"ELEMENT_SET_NO":999,"REV_AT_EPOCH":17544,"BSTAR":0.0053283,"MEAN_MOTION_DOT":2.18e-05,"MEAN_MOTION_DDOT":0.0},{"OBJECT_NAME":"ONEWEB-0511","OBJECT_ID":"2022-138S","EPOCH":"2026-05-19T04:51:42.912000","MEAN_MOTION":13.19724659,"ECCENTRICITY":0.0002063,"INCLINATION":87.9155,"RA_OF_ASC_NODE":310.7452,"ARG_OF_PERICENTER":87.7165,"MEAN_ANOMALY":272.4204,"EPHEMERIS_TYPE":0,"CLASSIFICATION_TYPE":"U","NORAD_CAT_ID":54129,"ELEMENT_SET_NO":999,"REV_AT_EPOCH":17301,"BSTAR":-2.981e-06,"MEAN_MOTION_DOT":1.2e-07,"MEAN_MOTION_DDOT":0.0},{"OBJECT_NAME":"ONEWEB-0512","OBJECT_ID":"2022-138T","EPOCH":"2026-05-19T04:40:20.246592","MEAN_MOTION":13.19726729,"ECCENTRICITY":0.000189,"INCLINATION":87.9148,"RA_OF_ASC_NODE":310.7538,"ARG_OF_PERICENTER":81.674,"MEAN_ANOMALY":278.4607,"EPHEMERIS_TYPE":0,"CLASSIFICATION_TYPE":"U","NORAD_CAT_ID":54130,"ELEMENT_SET_NO":999,"REV_AT_EPOCH":17298,"BSTAR":-5.1905000000000005e-05,"MEAN_MOTION_DOT":-8e-08,"MEAN_MOTION_DDOT":0.0},{"OBJECT_NAME":"ONEWEB-0513","OBJECT_ID":"2022-138U","EPOCH":"2026-05-19T05:05:34.247616","MEAN_MOTION":13.20266965,"ECCENTRICITY":0.0002362,"INCLINATION":87.9154,"RA_OF_ASC_NODE":310.698,"ARG_OF_PERICENTER":70.2403,"MEAN_ANOMALY":289.8984,"EPHEMERIS_TYPE":0,"CLASSIFICATION_TYPE":"U","NORAD_CAT_ID":54131,"ELEMENT_SET_NO":999,"REV_AT_EPOCH":17289,"BSTAR":0.00012781,"MEAN_MOTION_DOT":6.5e-07,"MEAN_MOTION_DDOT":0.0},{"OBJECT_NAME":"ONEWEB-0514","OBJECT_ID":"2022-138V","EPOCH":"2026-05-19T05:03:05.513472","MEAN_MOTION":13.1972555,"ECCENTRICITY":0.0001882,"INCLINATION":87.9156,"RA_OF_ASC_NODE":310.7415,"ARG_OF_PERICENTER":95.5483,"MEAN_ANOMALY":264.5865,"EPHEMERIS_TYPE":0,"CLASSIFICATION_TYPE":"U","NORAD_CAT_ID":54132,"ELEMENT_SET_NO":999,"REV_AT_EPOCH":17300,"BSTAR":1.7014000000000003e-05,"MEAN_MOTION_DOT":2e-07,"MEAN_MOTION_DDOT":0.0},{"OBJECT_NAME":"ONEWEB-0515","OBJECT_ID":"2022-138W","EPOCH":"2026-05-18T15:34:46.788960","MEAN_MOTION":13.20786083,"ECCENTRICITY":0.0001699,"INCLINATION":87.9176,"RA_OF_ASC_NODE":280.3192,"ARG_OF_PERICENTER":125.6051,"MEAN_ANOMALY":234.5241,"EPHEMERIS_TYPE":0,"CLASSIFICATION_TYPE":"U","NORAD_CAT_ID":54133,"ELEMENT_SET_NO":999,"REV_AT_EPOCH":17540,"BSTAR":-0.0060073,"MEAN_MOTION_DOT":-2.429e-05,"MEAN_MOTION_DDOT":0.0},{"OBJECT_NAME":"ONEWEB-0516","OBJECT_ID":"2022-138X","EPOCH":"2026-05-19T04:26:42.042048","MEAN_MOTION":13.19726476,"ECCENTRICITY":0.0001641,"INCLINATION":87.9148,"RA_OF_ASC_NODE":310.756,"ARG_OF_PERICENTER":90.1006,"MEAN_ANOMALY":270.0315,"EPHEMERIS_TYPE":0,"CLASSIFICATION_TYPE":"U","NORAD_CAT_ID":54134,"ELEMENT_SET_NO":999,"REV_AT_EPOCH":17300,"BSTAR":0.00015565000000000002,"MEAN_MOTION_DOT":7.5e-07,"MEAN_MOTION_DDOT":0.0},{"OBJECT_NAME":"ONEWEB-0517","OBJECT_ID":"2022-138Y","EPOCH":"2026-05-19T03:57:07.617600","MEAN_MOTION":13.19725636,"ECCENTRICITY":0.0002103,"INCLINATION":87.9154,"RA_OF_ASC_NODE":310.7508,"ARG_OF_PERICENTER":92.2663,"MEAN_ANOMALY":267.8711,"EPHEMERIS_TYPE":0,"CLASSIFICATION_TYPE":"U","NORAD_CAT_ID":54135,"ELEMENT_SET_NO":999,"REV_AT_EPOCH":17300,"BSTAR":-0.00019615,"MEAN_MOTION_DOT":-6.6e-07,"MEAN_MOTION_DDOT":0.0},{"OBJECT_NAME":"ONEWEB-0518","OBJECT_ID":"2022-138Z","EPOCH":"2026-05-19T04:24:25.389216","MEAN_MOTION":13.19725133,"ECCENTRICITY":0.0001651,"INCLINATION":87.9148,"RA_OF_ASC_NODE":310.7579,"ARG_OF_PERICENTER":88.7581,"MEAN_ANOMALY":271.3741,"EPHEMERIS_TYPE":0,"CLASSIFICATION_TYPE":"U","NORAD_CAT_ID":54136,"ELEMENT_SET_NO":999,"REV_AT_EPOCH":17300,"BSTAR":1.6002e-05,"MEAN_MOTION_DOT":1.9e-07,"MEAN_MOTION_DDOT":0.0},{"OBJECT_NAME":"ONEWEB-0519","OBJECT_ID":"2022-138AA","EPOCH":"2026-05-18T18:05:44.662560","MEAN_MOTION":13.19726484,"ECCENTRICITY":0.000202,"INCLINATION":87.916,"RA_OF_ASC_NODE":310.8317,"ARG_OF_PERICENTER":91.083,"MEAN_ANOMALY":269.0534,"EPHEMERIS_TYPE":0,"CLASSIFICATION_TYPE":"U","NORAD_CAT_ID":54137,"ELEMENT_SET_NO":999,"REV_AT_EPOCH":17295,"BSTAR":5.1839e-05,"MEAN_MOTION_DOT":3.4e-07,"MEAN_MOTION_DDOT":0.0}]